[{"OBJECT_NAME":"STARLINK-1047","OBJECT_ID":"2019-074AR","EPOCH":"2026-03-09T11:54:40.842720","MEAN_MOTION":15.32581056,"ECCENTRICITY":0.00022261,"INCLINATION":53.069,"RA_OF_ASC_NODE":146.9116,"ARG_OF_PERICENTER":203.7253,"MEAN_ANOMALY":156.3646,"EPHEMERIS_TYPE":0,"CLASSIFICATION_TYPE":"U","NORAD_CAT_ID":44752,"ELEMENT_SET_NO":999,"REV_AT_EPOCH":34931,"BSTAR":0.00039384285,"MEAN_MOTION_DOT":0.00012216,"MEAN_MOTION_DDOT":0},{"OBJECT_NAME":"NEXSAT-1","OBJECT_ID":"2024-024E","EPOCH":"2026-03-09T22:47:24.778176","MEAN_MOTION":15.32166372,"ECCENTRICITY":0.00099795,"INCLINATION":97.3124,"RA_OF_ASC_NODE":144.1918,"ARG_OF_PERICENTER":108.5709,"MEAN_ANOMALY":251.6617,"EPHEMERIS_TYPE":0,"CLASSIFICATION_TYPE":"U","NORAD_CAT_ID":58921,"ELEMENT_SET_NO":999,"REV_AT_EPOCH":11669,"BSTAR":0.00031433612,"MEAN_MOTION_DOT":9.702e-5,"MEAN_MOTION_DDOT":0}]
